<?xml version="1.0" encoding="UTF-8"?>
<ndm xmlns:xsi="http://www.w3.org/2001/XMLSchema-instance" xsi:noNamespaceSchemaLocation="https://sanaregistry.org/r/ndmxml_unqualified/ndmxml-2.0.0-master-2.0.xsd">
<omm id="CCSDS_OMM_VERS" version="2.0">
<header><CREATION_DATE/><ORIGINATOR/></header><body><segment><metadata><OBJECT_NAME>IRIDIUM 36</OBJECT_NAME><OBJECT_ID>1997-056C</OBJECT_ID><CENTER_NAME>EARTH</CENTER_NAME><REF_FRAME>TEME</REF_FRAME><TIME_SYSTEM>UTC</TIME_SYSTEM><MEAN_ELEMENT_THEORY>SGP4</MEAN_ELEMENT_THEORY></metadata><data><meanElements><EPOCH>2024-09-18T13:49:37.004736</EPOCH><MEAN_MOTION>14.37038294</MEAN_MOTION><ECCENTRICITY>.0002315</ECCENTRICITY><INCLINATION>86.3914</INCLINATION><RA_OF_ASC_NODE>287.0767</RA_OF_ASC_NODE><ARG_OF_PERICENTER>97.1083</ARG_OF_PERICENTER><MEAN_ANOMALY>263.0378</MEAN_ANOMALY></meanElements><tleParameters><EPHEMERIS_TYPE>0</EPHEMERIS_TYPE><CLASSIFICATION_TYPE>U</CLASSIFICATION_TYPE><NORAD_CAT_ID>24967</NORAD_CAT_ID><ELEMENT_SET_NO>999</ELEMENT_SET_NO><REV_AT_EPOCH>41320</REV_AT_EPOCH><BSTAR>.30883E-3</BSTAR><MEAN_MOTION_DOT>.935E-5</MEAN_MOTION_DOT><MEAN_MOTION_DDOT>0</MEAN_MOTION_DDOT></tleParameters></data></segment></body></omm>
<omm id="CCSDS_OMM_VERS" version="2.0">
<header><CREATION_DATE/><ORIGINATOR/></header><body><segment><metadata><OBJECT_NAME>IRIDIUM 39</OBJECT_NAME><OBJECT_ID>1997-069D</OBJECT_ID><CENTER_NAME>EARTH</CENTER_NAME><REF_FRAME>TEME</REF_FRAME><TIME_SYSTEM>UTC</TIME_SYSTEM><MEAN_ELEMENT_THEORY>SGP4</MEAN_ELEMENT_THEORY></metadata><data><meanElements><EPOCH>2024-09-18T13:37:32.878560</EPOCH><MEAN_MOTION>14.48350929</MEAN_MOTION><ECCENTRICITY>.0019938</ECCENTRICITY><INCLINATION>86.3942</INCLINATION><RA_OF_ASC_NODE>327.5940</RA_OF_ASC_NODE><ARG_OF_PERICENTER>129.5702</ARG_OF_PERICENTER><MEAN_ANOMALY>230.7267</MEAN_ANOMALY></meanElements><tleParameters><EPHEMERIS_TYPE>0</EPHEMERIS_TYPE><CLASSIFICATION_TYPE>U</CLASSIFICATION_TYPE><NORAD_CAT_ID>25042</NORAD_CAT_ID><ELEMENT_SET_NO>999</ELEMENT_SET_NO><REV_AT_EPOCH>40963</REV_AT_EPOCH><BSTAR>.48881E-3</BSTAR><MEAN_MOTION_DOT>.1852E-4</MEAN_MOTION_DOT><MEAN_MOTION_DDOT>0</MEAN_MOTION_DDOT></tleParameters></data></segment></body></omm>
<omm id="CCSDS_OMM_VERS" version="2.0">
<header><CREATION_DATE/><ORIGINATOR/></header><body><segment><metadata><OBJECT_NAME>IRIDIUM 38</OBJECT_NAME><OBJECT_ID>1997-069E</OBJECT_ID><CENTER_NAME>EARTH</CENTER_NAME><REF_FRAME>TEME</REF_FRAME><TIME_SYSTEM>UTC</TIME_SYSTEM><MEAN_ELEMENT_THEORY>SGP4</MEAN_ELEMENT_THEORY></metadata><data><meanElements><EPOCH>2024-09-18T06:36:36.853920</EPOCH><MEAN_MOTION>14.37531815</MEAN_MOTION><ECCENTRICITY>.0000301</ECCENTRICITY><INCLINATION>86.4016</INCLINATION><RA_OF_ASC_NODE>347.5599</RA_OF_ASC_NODE><ARG_OF_PERICENTER>108.9405</ARG_OF_PERICENTER><MEAN_ANOMALY>251.1825</MEAN_ANOMALY></meanElements><tleParameters><EPHEMERIS_TYPE>0</EPHEMERIS_TYPE><CLASSIFICATION_TYPE>U</CLASSIFICATION_TYPE><NORAD_CAT_ID>25043</NORAD_CAT_ID><ELEMENT_SET_NO>999</ELEMENT_SET_NO><REV_AT_EPOCH>40688</REV_AT_EPOCH><BSTAR>.47878E-3</BSTAR><MEAN_MOTION_DOT>.1453E-4</MEAN_MOTION_DOT><MEAN_MOTION_DDOT>0</MEAN_MOTION_DDOT></tleParameters></data></segment></body></omm>
<omm id="CCSDS_OMM_VERS" version="2.0">
<header><CREATION_DATE/><ORIGINATOR/></header><body><segment><metadata><OBJECT_NAME>IRIDIUM 42</OBJECT_NAME><OBJECT_ID>1997-077A</OBJECT_ID><CENTER_NAME>EARTH</CENTER_NAME><REF_FRAME>TEME</REF_FRAME><TIME_SYSTEM>UTC</TIME_SYSTEM><MEAN_ELEMENT_THEORY>SGP4</MEAN_ELEMENT_THEORY></metadata><data><meanElements><EPOCH>2024-09-18T07:11:40.852896</EPOCH><MEAN_MOTION>14.35809488</MEAN_MOTION><ECCENTRICITY>.0001484</ECCENTRICITY><INCLINATION>86.4025</INCLINATION><RA_OF_ASC_NODE>353.3790</RA_OF_ASC_NODE><ARG_OF_PERICENTER>86.5855</ARG_OF_PERICENTER><MEAN_ANOMALY>273.5512</MEAN_ANOMALY></meanElements><tleParameters><EPHEMERIS_TYPE>0</EPHEMERIS_TYPE><CLASSIFICATION_TYPE>U</CLASSIFICATION_TYPE><NORAD_CAT_ID>25077</NORAD_CAT_ID><ELEMENT_SET_NO>999</ELEMENT_SET_NO><REV_AT_EPOCH>40217</REV_AT_EPOCH><BSTAR>.47582E-3</BSTAR><MEAN_MOTION_DOT>.1396E-4</MEAN_MOTION_DOT><MEAN_MOTION_DDOT>0</MEAN_MOTION_DDOT></tleParameters></data></segment></body></omm>
<omm id="CCSDS_OMM_VERS" version="2.0">
<header><CREATION_DATE/><ORIGINATOR/></header><body><segment><metadata><OBJECT_NAME>IRIDIUM 44</OBJECT_NAME><OBJECT_ID>1997-077B</OBJECT_ID><CENTER_NAME>EARTH</CENTER_NAME><REF_FRAME>TEME</REF_FRAME><TIME_SYSTEM>UTC</TIME_SYSTEM><MEAN_ELEMENT_THEORY>SGP4</MEAN_ELEMENT_THEORY></metadata><data><meanElements><EPOCH>2024-09-18T13:37:33.020256</EPOCH><MEAN_MOTION>14.39653283</MEAN_MOTION><ECCENTRICITY>.0002413</ECCENTRICITY><INCLINATION>86.3998</INCLINATION><RA_OF_ASC_NODE>335.9295</RA_OF_ASC_NODE><ARG_OF_PERICENTER>140.4618</ARG_OF_PERICENTER><MEAN_ANOMALY>219.6758</MEAN_ANOMALY></meanElements><tleParameters><EPHEMERIS_TYPE>0</EPHEMERIS_TYPE><CLASSIFICATION_TYPE>U</CLASSIFICATION_TYPE><NORAD_CAT_ID>25078</NORAD_CAT_ID><ELEMENT_SET_NO>999</ELEMENT_SET_NO><REV_AT_EPOCH>40461</REV_AT_EPOCH><BSTAR>.37315E-3</BSTAR><MEAN_MOTION_DOT>.1186E-4</MEAN_MOTION_DOT><MEAN_MOTION_DDOT>0</MEAN_MOTION_DDOT></tleParameters></data></segment></body></omm>
<omm id="CCSDS_OMM_VERS" version="2.0">
<header><CREATION_DATE/><ORIGINATOR/></header><body><segment><metadata><OBJECT_NAME>IRIDIUM 45</OBJECT_NAME><OBJECT_ID>1997-082A</OBJECT_ID><CENTER_NAME>EARTH</CENTER_NAME><REF_FRAME>TEME</REF_FRAME><TIME_SYSTEM>UTC</TIME_SYSTEM><MEAN_ELEMENT_THEORY>SGP4</MEAN_ELEMENT_THEORY></metadata><data><meanElements><EPOCH>2024-09-18T06:52:18.569856</EPOCH><MEAN_MOTION>15.08166805</MEAN_MOTION><ECCENTRICITY>.0144533</ECCENTRICITY><INCLINATION>86.3724</INCLINATION><RA_OF_ASC_NODE>178.4193</RA_OF_ASC_NODE><ARG_OF_PERICENTER>259.9527</ARG_OF_PERICENTER><MEAN_ANOMALY>98.5375</MEAN_ANOMALY></meanElements><tleParameters><EPHEMERIS_TYPE>0</EPHEMERIS_TYPE><CLASSIFICATION_TYPE>U</CLASSIFICATION_TYPE><NORAD_CAT_ID>25104</NORAD_CAT_ID><ELEMENT_SET_NO>999</ELEMENT_SET_NO><REV_AT_EPOCH>41086</REV_AT_EPOCH><BSTAR>.14248E-2</BSTAR><MEAN_MOTION_DOT>.28184E-3</MEAN_MOTION_DOT><MEAN_MOTION_DDOT>0</MEAN_MOTION_DDOT></tleParameters></data></segment></body></omm>
<omm id="CCSDS_OMM_VERS" version="2.0">
<header><CREATION_DATE/><ORIGINATOR/></header><body><segment><metadata><OBJECT_NAME>IRIDIUM 24</OBJECT_NAME><OBJECT_ID>1997-082B</OBJECT_ID><CENTER_NAME>EARTH</CENTER_NAME><REF_FRAME>TEME</REF_FRAME><TIME_SYSTEM>UTC</TIME_SYSTEM><MEAN_ELEMENT_THEORY>SGP4</MEAN_ELEMENT_THEORY></metadata><data><meanElements><EPOCH>2024-09-18T07:57:35.966592</EPOCH><MEAN_MOTION>14.41469425</MEAN_MOTION><ECCENTRICITY>.0009053</ECCENTRICITY><INCLINATION>86.3976</INCLINATION><RA_OF_ASC_NODE>195.4569</RA_OF_ASC_NODE><ARG_OF_PERICENTER>253.9714</ARG_OF_PERICENTER><MEAN_ANOMALY>106.0489</MEAN_ANOMALY></meanElements><tleParameters><EPHEMERIS_TYPE>0</EPHEMERIS_TYPE><CLASSIFICATION_TYPE>U</CLASSIFICATION_TYPE><NORAD_CAT_ID>25105</NORAD_CAT_ID><ELEMENT_SET_NO>999</ELEMENT_SET_NO><REV_AT_EPOCH>40404</REV_AT_EPOCH><BSTAR>.50446E-3</BSTAR><MEAN_MOTION_DOT>.1656E-4</MEAN_MOTION_DOT><MEAN_MOTION_DDOT>0</MEAN_MOTION_DDOT></tleParameters></data></segment></body></omm>
<omm id="CCSDS_OMM_VERS" version="2.0">
<header><CREATION_DATE/><ORIGINATOR/></header><body><segment><metadata><OBJECT_NAME>IRIDIUM 51</OBJECT_NAME><OBJECT_ID>1998-018A</OBJECT_ID><CENTER_NAME>EARTH</CENTER_NAME><REF_FRAME>TEME</REF_FRAME><TIME_SYSTEM>UTC</TIME_SYSTEM><MEAN_ELEMENT_THEORY>SGP4</MEAN_ELEMENT_THEORY></metadata><data><meanElements><EPOCH>2024-09-18T07:37:02.044128</EPOCH><MEAN_MOTION>15.17018462</MEAN_MOTION><ECCENTRICITY>.0130294</ECCENTRICITY><INCLINATION>86.4003</INCLINATION><RA_OF_ASC_NODE>187.9156</RA_OF_ASC_NODE><ARG_OF_PERICENTER>196.3746</ARG_OF_PERICENTER><MEAN_ANOMALY>163.3270</MEAN_ANOMALY></meanElements><tleParameters><EPHEMERIS_TYPE>0</EPHEMERIS_TYPE><CLASSIFICATION_TYPE>U</CLASSIFICATION_TYPE><NORAD_CAT_ID>25262</NORAD_CAT_ID><ELEMENT_SET_NO>999</ELEMENT_SET_NO><REV_AT_EPOCH>40550</REV_AT_EPOCH><BSTAR>.13873E-2</BSTAR><MEAN_MOTION_DOT>.34322E-3</MEAN_MOTION_DOT><MEAN_MOTION_DDOT>0</MEAN_MOTION_DDOT></tleParameters></data></segment></body></omm>

</ndm>
