IRIDIUM 36              
1 24967U 97056C   24262.57612274  .00000935  00000+0  30883-3 0  9996
2 24967  86.3914 287.0767 0002315  97.1083 263.0378 14.37038294413207
IRIDIUM 39              
1 25042U 97069D   24262.56774165  .00001852  00000+0  48881-3 0  9998
2 25042  86.3942 327.5940 0019938 129.5702 230.7267 14.48350929409637
IRIDIUM 38              
1 25043U 97069E   24262.27542655  .00001453  00000+0  47878-3 0  9996
2 25043  86.4016 347.5599 0000301 108.9405 251.1825 14.37531815406882
IRIDIUM 42              
1 25077U 97077A   24262.29977839  .00001396  00000+0  47582-3 0  9998
2 25077  86.4025 353.3790 0001484  86.5855 273.5512 14.35809488402171
IRIDIUM 44              
1 25078U 97077B   24262.56774329  .00001186  00000+0  37315-3 0  9998
2 25078  86.3998 335.9295 0002413 140.4618 219.6758 14.39653283404614
IRIDIUM 45              
1 25104U 97082A   24262.28632604  .00028184  00000+0  14248-2 0  9998
2 25104  86.3724 178.4193 0144533 259.9527  98.5375 15.08166805410862
IRIDIUM 24              
1 25105U 97082B   24262.33166628  .00001656  00000+0  50446-3 0  9999
2 25105  86.3976 195.4569 0009053 253.9714 106.0489 14.41469425404041
IRIDIUM 51              
1 25262U 98018A   24262.31738477  .00034322  00000+0  13873-2 0  9996
2 25262  86.4003 187.9156 0130294 196.3746 163.3270 15.17018462405503
